[{"OBJECT_NAME":"GLOBAL-8","OBJECT_ID":"2020-055BQ","EPOCH":"2023-02-01T13:44:38.600736","MEAN_MOTION":15.57836244,"ECCENTRICITY":0.0007089,"INCLINATION":52.9947,"RA_OF_ASC_NODE":208.5971,"ARG_OF_PERICENTER":325.9891,"MEAN_ANOMALY":34.0664,"EPHEMERIS_TYPE":0,"CLASSIFICATION_TYPE":"U","NORAD_CAT_ID":46089,"ELEMENT_SET_NO":999,"REV_AT_EPOCH":14601,"BSTAR":0.00050765,"MEAN_MOTION_DOT":0.0003822,"MEAN_MOTION_DDOT":0},{"OBJECT_NAME":"BSAT-4B","OBJECT_ID":"2020-056A","EPOCH":"2023-02-01T14:10:42.752640","MEAN_MOTION":1.00272208,"ECCENTRICITY":3.13e-5,"INCLINATION":0.0329,"RA_OF_ASC_NODE":176.5669,"ARG_OF_PERICENTER":287.1856,"MEAN_ANOMALY":350.2645,"EPHEMERIS_TYPE":0,"CLASSIFICATION_TYPE":"U","NORAD_CAT_ID":46112,"ELEMENT_SET_NO":999,"REV_AT_EPOCH":903,"BSTAR":0,"MEAN_MOTION_DOT":-3.47e-6,"MEAN_MOTION_DDOT":0},{"OBJECT_NAME":"MEV-2","OBJECT_ID":"2020-056B","EPOCH":"2023-01-31T08:23:22.351200","MEAN_MOTION":1.00271417,"ECCENTRICITY":7.57e-5,"INCLINATION":0.0129,"RA_OF_ASC_NODE":274.0037,"ARG_OF_PERICENTER":64.4868,"MEAN_ANOMALY":276.6481,"EPHEMERIS_TYPE":0,"CLASSIFICATION_TYPE":"U","NORAD_CAT_ID":46113,"ELEMENT_SET_NO":999,"REV_AT_EPOCH":6818,"BSTAR":0,"MEAN_MOTION_DOT":-8.0e-8,"MEAN_MOTION_DDOT":0},{"OBJECT_NAME":"GALAXY 30 (G-30)","OBJECT_ID":"2020-056C","EPOCH":"2023-02-01T14:10:58.158624","MEAN_MOTION":1.00268868,"ECCENTRICITY":0.0002097,"INCLINATION":0.0201,"RA_OF_ASC_NODE":82.3765,"ARG_OF_PERICENTER":236.3138,"MEAN_ANOMALY":260.5852,"EPHEMERIS_TYPE":0,"CLASSIFICATION_TYPE":"U","NORAD_CAT_ID":46114,"ELEMENT_SET_NO":999,"REV_AT_EPOCH":905,"BSTAR":0,"MEAN_MOTION_DOT":4.0e-7,"MEAN_MOTION_DDOT":0},{"OBJECT_NAME":"STARLINK-1585","OBJECT_ID":"2020-057A","EPOCH":"2023-02-01T17:44:25.342944","MEAN_MOTION":15.06392929,"ECCENTRICITY":0.0001427,"INCLINATION":53.0545,"RA_OF_ASC_NODE":338.1485,"ARG_OF_PERICENTER":101.5455,"MEAN_ANOMALY":258.5694,"EPHEMERIS_TYPE":0,"CLASSIFICATION_TYPE":"U","NORAD_CAT_ID":46117,"ELEMENT_SET_NO":999,"REV_AT_EPOCH":13639,"BSTAR":0.00010436,"MEAN_MOTION_DOT":1.273e-5,"MEAN_MOTION_DDOT":0},{"OBJECT_NAME":"STARLINK-1588","OBJECT_ID":"2020-057B","EPOCH":"2023-02-02T03:30:55.490112","MEAN_MOTION":15.0639978,"ECCENTRICITY":0.0001612,"INCLINATION":53.0577,"RA_OF_ASC_NODE":356.3106,"ARG_OF_PERICENTER":99.3098,"MEAN_ANOMALY":260.8073,"EPHEMERIS_TYPE":0,"CLASSIFICATION_TYPE":"U","NORAD_CAT_ID":46118,"ELEMENT_SET_NO":999,"REV_AT_EPOCH":13617,"BSTAR":2.3176e-5,"MEAN_MOTION_DOT":6.4e-7,"MEAN_MOTION_DDOT":0},{"OBJECT_NAME":"STARLINK-1593","OBJECT_ID":"2020-057C","EPOCH":"2023-02-02T03:15:00.146304","MEAN_MOTION":15.06391865,"ECCENTRICITY":0.0001444,"INCLINATION":53.0558,"RA_OF_ASC_NODE":356.3582,"ARG_OF_PERICENTER":97.6202,"MEAN_ANOMALY":262.4951,"EPHEMERIS_TYPE":0,"CLASSIFICATION_TYPE":"U","NORAD_CAT_ID":46119,"ELEMENT_SET_NO":999,"REV_AT_EPOCH":13617,"BSTAR":-8.1745e-5,"MEAN_MOTION_DOT":-1.499e-5,"MEAN_MOTION_DDOT":0},{"OBJECT_NAME":"STARLINK-1601","OBJECT_ID":"2020-057D","EPOCH":"2023-02-02T02:53:46.633632","MEAN_MOTION":15.06394457,"ECCENTRICITY":0.0001813,"INCLINATION":53.0555,"RA_OF_ASC_NODE":356.43,"ARG_OF_PERICENTER":83.3164,"MEAN_ANOMALY":276.8031,"EPHEMERIS_TYPE":0,"CLASSIFICATION_TYPE":"U","NORAD_CAT_ID":46120,"ELEMENT_SET_NO":999,"REV_AT_EPOCH":13617,"BSTAR":-1.3874e-5,"MEAN_MOTION_DOT":-4.88e-6,"MEAN_MOTION_DDOT":0},{"OBJECT_NAME":"STARLINK-1602","OBJECT_ID":"2020-057E","EPOCH":"2023-02-02T02:08:40.662528","MEAN_MOTION":15.06369475,"ECCENTRICITY":0.0001894,"INCLINATION":53.0546,"RA_OF_ASC_NODE":336.5701,"ARG_OF_PERICENTER":80.3574,"MEAN_ANOMALY":279.7629,"EPHEMERIS_TYPE":0,"CLASSIFICATION_TYPE":"U","NORAD_CAT_ID":46121,"ELEMENT_SET_NO":999,"REV_AT_EPOCH":13644,"BSTAR":-0.00030848,"MEAN_MOTION_DOT":-4.87e-5,"MEAN_MOTION_DDOT":0},{"OBJECT_NAME":"STARLINK-1604","OBJECT_ID":"2020-057F","EPOCH":"2023-02-02T02:21:55.240992","MEAN_MOTION":15.06397119,"ECCENTRICITY":0.0001565,"INCLINATION":53.0556,"RA_OF_ASC_NODE":316.5263,"ARG_OF_PERICENTER":97.4133,"MEAN_ANOMALY":262.7034,"EPHEMERIS_TYPE":0,"CLASSIFICATION_TYPE":"U","NORAD_CAT_ID":46122,"ELEMENT_SET_NO":999,"REV_AT_EPOCH":13673,"BSTAR":-7.2932e-5,"MEAN_MOTION_DOT":-1.368e-5,"MEAN_MOTION_DDOT":0},{"OBJECT_NAME":"STARLINK-1605","OBJECT_ID":"2020-057G","EPOCH":"2023-02-02T02:00:41.729184","MEAN_MOTION":15.0639087,"ECCENTRICITY":9.67e-5,"INCLINATION":53.0535,"RA_OF_ASC_NODE":316.6007,"ARG_OF_PERICENTER":92.4299,"MEAN_ANOMALY":267.6801,"EPHEMERIS_TYPE":0,"CLASSIFICATION_TYPE":"U","NORAD_CAT_ID":46123,"ELEMENT_SET_NO":999,"REV_AT_EPOCH":13672,"BSTAR":-3.2806e-5,"MEAN_MOTION_DOT":-7.7e-6,"MEAN_MOTION_DDOT":0},{"OBJECT_NAME":"STARLINK-1614","OBJECT_ID":"2020-057H","EPOCH":"2023-02-02T02:11:18.927456","MEAN_MOTION":15.06393722,"ECCENTRICITY":0.0001403,"INCLINATION":53.0554,"RA_OF_ASC_NODE":316.5631,"ARG_OF_PERICENTER":94.1263,"MEAN_ANOMALY":265.9887,"EPHEMERIS_TYPE":0,"CLASSIFICATION_TYPE":"U","NORAD_CAT_ID":46124,"ELEMENT_SET_NO":999,"REV_AT_EPOCH":13673,"BSTAR":6.659e-5,"MEAN_MOTION_DOT":7.1e-6,"MEAN_MOTION_DDOT":0},{"OBJECT_NAME":"STARLINK-1618","OBJECT_ID":"2020-057J","EPOCH":"2023-02-02T03:20:18.612384","MEAN_MOTION":15.06395172,"ECCENTRICITY":0.0001403,"INCLINATION":53.053,"RA_OF_ASC_NODE":356.3433,"ARG_OF_PERICENTER":105.0215,"MEAN_ANOMALY":255.0929,"EPHEMERIS_TYPE":0,"CLASSIFICATION_TYPE":"U","NORAD_CAT_ID":46125,"ELEMENT_SET_NO":999,"REV_AT_EPOCH":13617,"BSTAR":4.2263e-5,"MEAN_MOTION_DOT":3.48e-6,"MEAN_MOTION_DDOT":0},{"OBJECT_NAME":"STARLINK-1619","OBJECT_ID":"2020-057K","EPOCH":"2023-02-02T04:18:41.587200","MEAN_MOTION":15.06398765,"ECCENTRICITY":0.0001162,"INCLINATION":53.054,"RA_OF_ASC_NODE":356.1708,"ARG_OF_PERICENTER":94.192,"MEAN_ANOMALY":265.9201,"EPHEMERIS_TYPE":0,"CLASSIFICATION_TYPE":"U","NORAD_CAT_ID":46126,"ELEMENT_SET_NO":999,"REV_AT_EPOCH":13618,"BSTAR":2.3157e-5,"MEAN_MOTION_DOT":6.4e-7,"MEAN_MOTION_DDOT":0},{"OBJECT_NAME":"STARLINK-1621","OBJECT_ID":"2020-057L","EPOCH":"2023-02-01T15:21:06.414912","MEAN_MOTION":15.063993,"ECCENTRICITY":0.0001473,"INCLINATION":53.0538,"RA_OF_ASC_NODE":338.5895,"ARG_OF_PERICENTER":99.0304,"MEAN_ANOMALY":261.0852,"EPHEMERIS_TYPE":0,"CLASSIFICATION_TYPE":"U","NORAD_CAT_ID":46127,"ELEMENT_SET_NO":999,"REV_AT_EPOCH":13638,"BSTAR":7.7366e-5,"MEAN_MOTION_DOT":8.71e-6,"MEAN_MOTION_DDOT":0},{"OBJECT_NAME":"STARLINK-1622","OBJECT_ID":"2020-057M","EPOCH":"2023-02-02T03:09:41.582592","MEAN_MOTION":15.06401002,"ECCENTRICITY":0.0001574,"INCLINATION":53.0547,"RA_OF_ASC_NODE":316.3821,"ARG_OF_PERICENTER":85.1314,"MEAN_ANOMALY":274.9854,"EPHEMERIS_TYPE":0,"CLASSIFICATION_TYPE":"U","NORAD_CAT_ID":46128,"ELEMENT_SET_NO":999,"REV_AT_EPOCH":13673,"BSTAR":0.00015416,"MEAN_MOTION_DOT":2.015e-5,"MEAN_MOTION_DDOT":0},{"OBJECT_NAME":"STARLINK-1623","OBJECT_ID":"2020-057N","EPOCH":"2023-02-02T02:32:32.353728","MEAN_MOTION":15.06399094,"ECCENTRICITY":0.0001315,"INCLINATION":53.055,"RA_OF_ASC_NODE":316.497,"ARG_OF_PERICENTER":100.5153,"MEAN_ANOMALY":259.5984,"EPHEMERIS_TYPE":0,"CLASSIFICATION_TYPE":"U","NORAD_CAT_ID":46129,"ELEMENT_SET_NO":999,"REV_AT_EPOCH":13673,"BSTAR":2.8216e-5,"MEAN_MOTION_DOT":1.39e-6,"MEAN_MOTION_DDOT":0}]
