GLOBAL-8                
1 46089U 20055BQ  23032.57266899  .00038220  00000+0  50765-3 0  9991
2 46089  52.9947 208.5971 0007089 325.9891  34.0664 15.57836244146018
BSAT-4B                 
1 46112U 20056A   23032.59077260 -.00000347  00000+0  00000+0 0  9996
2 46112   0.0329 176.5669 0000313 287.1856 350.2645  1.00272208  9033
MEV-2                   
1 46113U 20056B   23031.34956425 -.00000008  00000+0  00000+0 0  9992
2 46113   0.0129 274.0037 0000757  64.4868 276.6481  1.00271417 68187
GALAXY 30 (G-30)        
1 46114U 20056C   23032.59095091  .00000040  00000+0  00000+0 0  9999
2 46114   0.0201  82.3765 0002097 236.3138 260.5852  1.00268868  9057
STARLINK-1585           
1 46117U 20057A   23032.73918221  .00001273  00000+0  10436-3 0  9995
2 46117  53.0545 338.1485 0001427 101.5455 258.5694 15.06392929136397
STARLINK-1588           
1 46118U 20057B   23033.14647558  .00000064  00000+0  23176-4 0  9997
2 46118  53.0577 356.3106 0001612  99.3098 260.8073 15.06399780136173
STARLINK-1593           
1 46119U 20057C   23033.13541836 -.00001499  00000+0 -81745-4 0  9990
2 46119  53.0558 356.3582 0001444  97.6202 262.4951 15.06391865136171
STARLINK-1601           
1 46120U 20057D   23033.12067863 -.00000488  00000+0 -13874-4 0  9999
2 46120  53.0555 356.4300 0001813  83.3164 276.8031 15.06394457136176
STARLINK-1602           
1 46121U 20057E   23033.08935952 -.00004870  00000+0 -30848-3 0  9996
2 46121  53.0546 336.5701 0001894  80.3574 279.7629 15.06369475136449
STARLINK-1604           
1 46122U 20057F   23033.09855603 -.00001368  00000+0 -72932-4 0  9992
2 46122  53.0556 316.5263 0001565  97.4133 262.7034 15.06397119136737
STARLINK-1605           
1 46123U 20057G   23033.08381631 -.00000770  00000+0 -32806-4 0  9999
2 46123  53.0535 316.6007 0000967  92.4299 267.6801 15.06390870136727
STARLINK-1614           
1 46124U 20057H   23033.09119129  .00000710  00000+0  66590-4 0  9991
2 46124  53.0554 316.5631 0001403  94.1263 265.9887 15.06393722136732
STARLINK-1618           
1 46125U 20057J   23033.13910431  .00000348  00000+0  42263-4 0  9990
2 46125  53.0530 356.3433 0001403 105.0215 255.0929 15.06395172136174
STARLINK-1619           
1 46126U 20057K   23033.17964800  .00000064  00000+0  23157-4 0  9990
2 46126  53.0540 356.1708 0001162  94.1920 265.9201 15.06398765136187
STARLINK-1621           
1 46127U 20057L   23032.63965758  .00000871  00000+0  77366-4 0  9991
2 46127  53.0538 338.5895 0001473  99.0304 261.0852 15.06399300136388
STARLINK-1622           
1 46128U 20057M   23033.13173128  .00002015  00000+0  15416-3 0  9999
2 46128  53.0547 316.3821 0001574  85.1314 274.9854 15.06401002136738
STARLINK-1623           
1 46129U 20057N   23033.10593002  .00000139  00000+0  28216-4 0  9992
2 46129  53.0550 316.4970 0001315 100.5153 259.5984 15.06399094136735
